start=new Date('2022-11-25T00:00:00.000Z').valueOf();
sats=[{"EPOCH":"2022-11-24T00:18:58.826304","RA_OF_ASC_NODE":"201.1395","CENTER_NAME":"EARTH","BSTAR":"-0.00003643200000","RCS_SIZE":"LARGE","GP_ID":"218666026","DECAY_DATE":null,"NORAD_CAT_ID":"47770","ECCENTRICITY":"0.00018860","MEAN_MOTION_DDOT":"0.0000000000000","REF_FRAME":"TEME","COUNTRY_CODE":"US","EPHEMERIS_TYPE":"0","OBJECT_NAME":"STARLINK-2193","REV_AT_EPOCH":"9670","CLASSIFICATION_TYPE":"U","SEMIMAJOR_AXIS":"6925.373","MEAN_MOTION_DOT":"-0.00000824","FILE":"3669022","OBJECT_TYPE":"PAYLOAD","PERIOD":"95.593","MEAN_MOTION":"15.06391915","LAUNCH_DATE":"2021-03-04","OBJECT_ID":"2021-017BA","PERIAPSIS":"545.932","TLE_LINE2":"2 47770  53.0540 201.1395 0001886  55.9811 304.1357 15.06391915 96702","APOAPSIS":"548.544","SITE":"AFETR","INCLINATION":"53.0540","ARG_OF_PERICENTER":"55.9811","MEAN_ANOMALY":"304.1357","TIME_SYSTEM":"UTC","MEAN_ELEMENT_THEORY":"SGP4","ELEMENT_SET_NO":"999","TLE_LINE1":"1 47770U 21017BA  22328.01318086 -.00000824  00000-0 -36432-4 0  9998"},{"GP_ID":"218722839","DECAY_DATE":null,"EPOCH":"2022-11-24T18:05:50.365824","RA_OF_ASC_NODE":"197.8359","BSTAR":"0.00005295500000","RCS_SIZE":"LARGE","CENTER_NAME":"EARTH","ECCENTRICITY":"0.00018360","REF_FRAME":"TEME","MEAN_MOTION_DDOT":"0.0000000000000","COUNTRY_CODE":"US","EPHEMERIS_TYPE":"0","OBJECT_NAME":"STARLINK-2194","NORAD_CAT_ID":"47771","FILE":"3669335","OBJECT_TYPE":"PAYLOAD","LAUNCH_DATE":"2021-03-04","OBJECT_ID":"2021-017BB","PERIOD":"95.593","MEAN_MOTION":"15.06390990","SEMIMAJOR_AXIS":"6925.376","CLASSIFICATION_TYPE":"U","REV_AT_EPOCH":"9682","MEAN_MOTION_DOT":"0.00000507","MEAN_ANOMALY":"307.2895","ARG_OF_PERICENTER":"52.8261","MEAN_ELEMENT_THEORY":"SGP4","TIME_SYSTEM":"UTC","TLE_LINE1":"1 47771U 21017BB  22328.75405516  .00000507  00000-0  52955-4 0  9999","ELEMENT_SET_NO":"999","PERIAPSIS":"545.970","TLE_LINE2":"2 47771  53.0532 197.8359 0001836  52.8261 307.2895 15.06390990 96821","INCLINATION":"53.0532","SITE":"AFETR","APOAPSIS":"548.513"},{"CENTER_NAME":"EARTH","BSTAR":"0.00008776800000","RCS_SIZE":"LARGE","RA_OF_ASC_NODE":"212.5884","EPOCH":"2022-11-24T19:26:06.869472","DECAY_DATE":null,"GP_ID":"218723583","NORAD_CAT_ID":"47772","OBJECT_NAME":"STARLINK-2195","COUNTRY_CODE":"US","EPHEMERIS_TYPE":"0","MEAN_MOTION_DDOT":"0.0000000000000","REF_FRAME":"TEME","ECCENTRICITY":"0.00016530","MEAN_MOTION_DOT":"0.00001026","CLASSIFICATION_TYPE":"U","REV_AT_EPOCH":"9659","SEMIMAJOR_AXIS":"6925.353","PERIOD":"95.592","MEAN_MOTION":"15.06398415","OBJECT_ID":"2021-017BC","LAUNCH_DATE":"2021-03-04","OBJECT_TYPE":"PAYLOAD","FILE":"3669335","SITE":"AFETR","APOAPSIS":"548.363","INCLINATION":"53.0545","TLE_LINE2":"2 47772  53.0545 212.5884 0001653  72.3981 287.7188 15.06398415 96598","PERIAPSIS":"546.074","ELEMENT_SET_NO":"999","TLE_LINE1":"1 47772U 21017BC  22328.80980173  .00001026  00000-0  87768-4 0  9990","TIME_SYSTEM":"UTC","MEAN_ELEMENT_THEORY":"SGP4","ARG_OF_PERICENTER":"72.3981","MEAN_ANOMALY":"287.7188"},{"GP_ID":"218721838","DECAY_DATE":null,"RA_OF_ASC_NODE":"213.1962","CENTER_NAME":"EARTH","RCS_SIZE":"LARGE","BSTAR":"-0.00000994050000","EPOCH":"2022-11-24T16:09:43.913952","EPHEMERIS_TYPE":"0","COUNTRY_CODE":"US","OBJECT_NAME":"STARLINK-2196","ECCENTRICITY":"0.00016820","MEAN_MOTION_DDOT":"0.0000000000000","REF_FRAME":"TEME","NORAD_CAT_ID":"47773","OBJECT_TYPE":"PAYLOAD","MEAN_MOTION":"15.06391577","PERIOD":"95.593","OBJECT_ID":"2021-017BD","LAUNCH_DATE":"2021-03-04","FILE":"3669335","MEAN_MOTION_DOT":"-0.00000430","CLASSIFICATION_TYPE":"U","REV_AT_EPOCH":"9656","SEMIMAJOR_AXIS":"6925.374","ELEMENT_SET_NO":"999","TLE_LINE1":"1 47773U 21017BD  22328.67342493 -.00000430  00000-0 -99405-5 0  9995","ARG_OF_PERICENTER":"54.0188","MEAN_ANOMALY":"306.0957","TIME_SYSTEM":"UTC","MEAN_ELEMENT_THEORY":"SGP4","TLE_LINE2":"2 47773  53.0545 213.1962 0001682  54.0188 306.0957 15.06391577 96569","APOAPSIS":"548.404","SITE":"AFETR","INCLINATION":"53.0545","PERIAPSIS":"546.075"},{"REF_FRAME":"TEME","MEAN_MOTION_DDOT":"0.0000000000000","ECCENTRICITY":"0.00017740","OBJECT_NAME":"STARLINK-2197","COUNTRY_CODE":"US","EPHEMERIS_TYPE":"0","NORAD_CAT_ID":"47774","DECAY_DATE":null,"GP_ID":"218722088","EPOCH":"2022-11-24T16:04:24.803328","CENTER_NAME":"EARTH","BSTAR":"0.00023450000000","RCS_SIZE":"LARGE","RA_OF_ASC_NODE":"213.2134","TIME_SYSTEM":"UTC","MEAN_ELEMENT_THEORY":"SGP4","ARG_OF_PERICENTER":"53.0265","MEAN_ANOMALY":"307.0886","ELEMENT_SET_NO":"999","TLE_LINE1":"1 47774U 21017BE  22328.66973152  .00003213  00000-0  23450-3 0  9992","PERIAPSIS":"545.983","SITE":"AFETR","APOAPSIS":"548.440","INCLINATION":"53.0537","TLE_LINE2":"2 47774  53.0537 213.2134 0001774  53.0265 307.0886 15.06400577 96574","FILE":"3669335","MEAN_MOTION":"15.06400577","PERIOD":"95.592","LAUNCH_DATE":"2021-03-04","OBJECT_ID":"2021-017BE","OBJECT_TYPE":"PAYLOAD","CLASSIFICATION_TYPE":"U","REV_AT_EPOCH":"9657","SEMIMAJOR_AXIS":"6925.347","MEAN_MOTION_DOT":"0.00003213"},{"FILE":"3669022","OBJECT_ID":"2021-017BF","LAUNCH_DATE":"2021-03-04","MEAN_MOTION":"15.06399642","PERIOD":"95.592","OBJECT_TYPE":"PAYLOAD","SEMIMAJOR_AXIS":"6925.350","REV_AT_EPOCH":"9658","CLASSIFICATION_TYPE":"U","MEAN_MOTION_DOT":"0.00000654","MEAN_ELEMENT_THEORY":"SGP4","TIME_SYSTEM":"UTC","MEAN_ANOMALY":"312.1038","ARG_OF_PERICENTER":"48.0139","TLE_LINE1":"1 47775U 21017BF  22328.41540446  .00000654  00000-0  62836-4 0  9990","ELEMENT_SET_NO":"999","PERIAPSIS":"545.681","INCLINATION":"53.0551","APOAPSIS":"548.748","SITE":"AFETR","TLE_LINE2":"2 47775  53.0551 214.3510 0002214  48.0139 312.1038 15.06399642 96582","DECAY_DATE":null,"GP_ID":"218665764","EPOCH":"2022-11-24T09:58:10.945344","BSTAR":"0.00006283600000","RCS_SIZE":"LARGE","CENTER_NAME":"EARTH","RA_OF_ASC_NODE":"214.3510","MEAN_MOTION_DDOT":"0.0000000000000","REF_FRAME":"TEME","ECCENTRICITY":"0.00022140","OBJECT_NAME":"STARLINK-2198","COUNTRY_CODE":"US","EPHEMERIS_TYPE":"0","NORAD_CAT_ID":"47775"},{"GP_ID":"218665024","DECAY_DATE":null,"EPOCH":"2022-11-24T09:01:07.783392","RA_OF_ASC_NODE":"204.5338","BSTAR":"0.00004678700000","RCS_SIZE":"LARGE","CENTER_NAME":"EARTH","ECCENTRICITY":"0.00019400","REF_FRAME":"TEME","MEAN_MOTION_DDOT":"0.0000000000000","EPHEMERIS_TYPE":"0","COUNTRY_CODE":"US","OBJECT_NAME":"STARLINK-2209","NORAD_CAT_ID":"47776","FILE":"3669022","OBJECT_TYPE":"PAYLOAD","LAUNCH_DATE":"2021-03-04","OBJECT_ID":"2021-017BG","PERIOD":"95.592","MEAN_MOTION":"15.06396597","SEMIMAJOR_AXIS":"6925.359","CLASSIFICATION_TYPE":"U","REV_AT_EPOCH":"9668","MEAN_MOTION_DOT":"0.00000415","MEAN_ANOMALY":"300.9203","ARG_OF_PERICENTER":"59.1977","MEAN_ELEMENT_THEORY":"SGP4","TIME_SYSTEM":"UTC","TLE_LINE1":"1 47776U 21017BG  22328.37578453  .00000415  00000-0  46787-4 0  9997","ELEMENT_SET_NO":"999","PERIAPSIS":"545.880","TLE_LINE2":"2 47776  53.0545 204.5338 0001940  59.1977 300.9203 15.06396597 96689","INCLINATION":"53.0545","SITE":"AFETR","APOAPSIS":"548.568"},{"CLASSIFICATION_TYPE":"U","REV_AT_EPOCH":"9674","SEMIMAJOR_AXIS":"6925.328","MEAN_MOTION_DOT":"-0.00002138","FILE":"3669335","OBJECT_TYPE":"PAYLOAD","MEAN_MOTION":"15.06406694","PERIOD":"95.592","LAUNCH_DATE":"2021-03-04","OBJECT_ID":"2021-017BH","PERIAPSIS":"545.557","TLE_LINE2":"2 47777  53.0535 202.7290 0002363  46.6326 313.4859 15.06406694 96748","SITE":"AFETR","APOAPSIS":"548.829","INCLINATION":"53.0535","ARG_OF_PERICENTER":"46.6326","MEAN_ANOMALY":"313.4859","TIME_SYSTEM":"UTC","MEAN_ELEMENT_THEORY":"SGP4","ELEMENT_SET_NO":"999","TLE_LINE1":"1 47777U 21017BH  22328.77755048 -.00002138  00000-0 -12459-3 0  9993","EPOCH":"2022-11-24T18:39:40.361472","RA_OF_ASC_NODE":"202.7290","CENTER_NAME":"EARTH","RCS_SIZE":"LARGE","BSTAR":"-0.00012459000000","GP_ID":"218722338","DECAY_DATE":null,"NORAD_CAT_ID":"47777","ECCENTRICITY":"0.00023630","MEAN_MOTION_DDOT":"0.0000000000000","REF_FRAME":"TEME","EPHEMERIS_TYPE":"0","COUNTRY_CODE":"US","OBJECT_NAME":"STARLINK-2210"},{"ELEMENT_SET_NO":"999","TLE_LINE1":"1 47778U 21017BJ  22328.08091031  .00000795  00000-0  72284-4 0  9991","TIME_SYSTEM":"UTC","MEAN_ELEMENT_THEORY":"SGP4","ARG_OF_PERICENTER":"61.7668","MEAN_ANOMALY":"298.3508","APOAPSIS":"548.538","SITE":"AFETR","INCLINATION":"53.0550","TLE_LINE2":"2 47778  53.0550 205.8523 0001859  61.7668 298.3508 15.06387931 96637","PERIAPSIS":"545.963","PERIOD":"95.593","MEAN_MOTION":"15.06387931","LAUNCH_DATE":"2021-03-04","OBJECT_ID":"2021-017BJ","OBJECT_TYPE":"PAYLOAD","FILE":"3669022","MEAN_MOTION_DOT":"0.00000795","CLASSIFICATION_TYPE":"U","REV_AT_EPOCH":"9663","SEMIMAJOR_AXIS":"6925.386","OBJECT_NAME":"STARLINK-2211","EPHEMERIS_TYPE":"0","COUNTRY_CODE":"US","MEAN_MOTION_DDOT":"0.0000000000000","REF_FRAME":"TEME","ECCENTRICITY":"0.00018590","NORAD_CAT_ID":"47778","DECAY_DATE":null,"GP_ID":"218666027","CENTER_NAME":"EARTH","RCS_SIZE":"LARGE","BSTAR":"0.00007228400000","RA_OF_ASC_NODE":"205.8523","EPOCH":"2022-11-24T01:56:30.650784"},{"DECAY_DATE":null,"GP_ID":"218722840","RCS_SIZE":"LARGE","BSTAR":"0.00041873000000","CENTER_NAME":"EARTH","RA_OF_ASC_NODE":"184.1736","EPOCH":"2022-11-24T21:37:39.240768","OBJECT_NAME":"STARLINK-2212","COUNTRY_CODE":"US","EPHEMERIS_TYPE":"0","MEAN_MOTION_DDOT":"0.0000000000000","REF_FRAME":"TEME","ECCENTRICITY":"0.00029280","NORAD_CAT_ID":"47779","OBJECT_ID":"2021-017BK","LAUNCH_DATE":"2021-03-04","PERIOD":"95.092","MEAN_MOTION":"15.14322168","OBJECT_TYPE":"PAYLOAD","FILE":"3669335","MEAN_MOTION_DOT":"0.00007465","SEMIMAJOR_AXIS":"6901.174","CLASSIFICATION_TYPE":"U","REV_AT_EPOCH":"9702","TLE_LINE1":"1 47779U 21017BK  22328.90114862  .00007465  00000-0  41873-3 0  9991","ELEMENT_SET_NO":"999","MEAN_ELEMENT_THEORY":"SGP4","TIME_SYSTEM":"UTC","MEAN_ANOMALY":"244.2591","ARG_OF_PERICENTER":"115.8703","INCLINATION":"53.0531","APOAPSIS":"525.060","SITE":"AFETR","TLE_LINE2":"2 47779  53.0531 184.1736 0002928 115.8703 244.2591 15.14322168 97027","PERIAPSIS":"521.019"}];
